#dP2022  7 26  6  0  0.00000000      96 __u+U ITR00 EXT  IAC
## 2220 194400.00000000   900.00000000 59786 0.2500000000000
+  116   C06C07C08C09C10C11C12C13C14C16C19C20C21C22C23C24C25
+        C26C27C28C29C30C32C33C34C35C36C37C38C39C40C41C42C43
+        C44C45C46E01E02E03E04E05E07E08E09E10E11E12E13E14E15
+        E18E19E21E24E25E26E27E30E31E33E34E36G01G02G03G04G05
+        G06G07G08G09G10G11G12G13G14G15G16G17G18G19G20G21G22
+        G23G24G25G26G27G28G29G30G31G32J02J03R01R02R03R04R05
+        R07R08R09R11R12R13R14R15R17R18R19R20R21R24  0  0  0
++        11 10 11 10  9  9  8 10 10 11  9  9 10  9  9  8  9
++         9  8  8  9  9  9  8  7 10  9 10 11 11 10  8  8  8
++         9  9  8  8  9  8  8  8  8  8  8  9  8  8  8  8  7
++         8  8  8  8  9  8  8  8  7  8  7  8  8  7  8  8  8
++         7  7  9  8  8  7  7  8  7  8  8  8  8  8  8  8  8
++         8  8  8  8  7  8  9  8  8  8  9 10  8  8  8  9  8
++         9  8  9  8  8  9  8  8  9  9  9  9  8  9  0  0  0
%c M  cc GPS ccc cccc cccc cccc cccc ccccc ccccc ccccc ccccc
%c cc cc ccc ccc cccc cccc cccc cccc ccccc ccccc ccccc ccccc
%f  0.0000000  0.000000000  0.00000000000  0.000000000000000
%f  0.0000000  0.000000000  0.00000000000  0.000000000000000
%i    0    0    0    0      0      0      0      0         0
%i    0    0    0    0      0      0      0      0         0
/* IAC                                ULTRA-RAPID PREDICTION
/* S/V CLOCKS ARE ALIGNED TO GNSS TIME                      
/* G:C1WC2W R:C1PC2P E:C1XC5X C:C2IC6I J:C1CC2S             
/* PCV:IGS14_2215 OL/AL:FES2004  NONE     YN ORB:CoN CLK:CoN
*  2022 07 27  4 15  0.00000000
PC06 -15895.292384  25500.889606 -29640.909319    479.814992
PC07 -10155.500474  40713.127233  -2915.180805   -483.392107
PC08   2016.307640  27765.937539  31708.399261    419.545482
PC09  -7941.498881  25121.888097 -32644.027663   -915.064223
PC10  -4823.278258  41493.014449   3243.292879    114.747277
PC11 -26261.790689   1351.354150  -9224.982471   -506.117583
PC12 -14263.643533 -10494.857547 -21530.845383   -567.047419
PC13   6503.368295  30752.528389  28360.071604     35.518050
PC14 -16015.375672   -333.161963  22862.312708    560.193624
PC16 -18906.892879  24742.559957 -28341.001200    143.347427
PC19  16223.311950 -10851.884200 -19932.229227   -297.002123
PC20  13735.686378   9292.127138 -22429.319757   -964.339167
PC21  -2740.228351 -25271.584642  11558.310607    -63.592760
PC22   9504.725543 -25604.254578  -5812.965680   -963.281844
PC23  -6158.854944  15890.649475 -22083.871636   -951.926586
PC24 -22352.167617 -16133.524796  -4267.505223   -967.722690
PC25 -19955.334962   1236.778241 -19462.918670   -701.741329
PC26 -12774.599582 -21959.688014  11501.796672    703.825859
PC27   5034.421485  15058.673206  22924.993296    760.474300
PC28 -14700.995752  16739.751661  16799.035883     94.684960
PC29  26285.346033  -9377.649955   -129.871228    587.151813
PC30  22007.136353   4437.046386  16555.457087    501.521154
PC32   2884.744449  25262.791302 -11470.728428   -140.867212
PC33 -16203.327978  10787.203115  19989.596678   -262.617093
PC34 -22711.164764  -3732.787615 -15806.975554   -349.809600
PC35  15222.784789 -17107.631107 -15940.942573    384.408327
PC36  20275.040103   -258.529988  19204.762025   -971.097469
PC37  11282.519249  22268.532124 -12469.470605   -922.293146
PC38  -6358.583334  24697.601543  33611.953075     12.941913
PC39 -23642.488295  25087.274088 -24373.240972     -0.125749
PC40 -16208.988704  38302.542400  -6160.620922     -1.243490
PC41  -9739.572573  25376.233885   6355.906338   -114.230323
PC42 -13376.052245 -10539.324687  22152.402954     -6.064187
PC43 -26481.258603   8813.145761   -609.661102      5.218848
PC44  -5433.392540 -15081.478635 -22856.907461    737.076382
PC45   5785.815835 -16017.418486  22113.286308    819.378250
PC46  22767.519801  15083.486581   5832.063184   -453.669287
PE01  -7965.276109  20172.228051 -20137.605188   -522.962047
PE02   7859.020838 -20306.709398  20049.974575    314.514951
PE03  18101.710705 -23243.396367   2960.431653   -583.176424
PE04  -2494.608066  22652.207225 -18880.582360  -1080.210857
PE05  23383.262667 -10160.829441 -15039.217510   -159.202625
PE07 -14988.151939  -8635.230431  24025.838870   -691.132261
PE08   2362.614831 -22530.165838  19062.264552   -570.658604
PE09  14912.866773   8481.848187 -24118.614863   -601.687928
PE10  17385.711537  15537.998402  18224.825080   -503.290723
PE11  25407.965846  11691.886386   9661.382755   2863.566261
PE12   6985.138479  16891.670549  23268.999660    -83.258122
PE13 -24999.479560 -11974.125006 -10389.824999    429.990191
PE14 -12987.453121 -15189.214223 -24056.381196  -1767.297845
PE15  -6852.666609 -16808.928232 -23382.936531    730.733615
PE18  20305.443945   1139.101599  16065.839552  -1166.674197
PE19 -19562.137764  22207.795145   -535.061278  -4979.599566
PE21 -16905.457184   1440.971907 -24249.962593   -748.263244
PE24  16426.690269  20357.774992  13862.513448   -747.160572
PE25  16989.503707  -1121.479876  24223.936697   -582.460951
PE26 -28057.469127    444.872572   9405.720670  -1424.024686
PE27 -16809.435922 -19383.356810 -14749.574140   -354.166715
PE30  -6095.245964 -28656.815884   4186.423431   -705.064748
PE31   6842.055591  28604.877932  -3314.062017   -500.609495
PE33 -15238.404490  11702.181236  22513.430028   -454.350416
PE34  15035.991352 -11829.003639 -22603.361838   -487.878227
PE36  28322.681626    145.893440  -8603.247731   -407.978793
PG01 -20304.075131 -14120.693350 -10446.261531    313.584055
PG02   2369.352637  15982.942929  21708.053005   -650.586456
PG03 -12332.613156 -20570.366964  11412.165739   -317.562005
PG04 -10855.318577 -10697.300497  21762.916628   -140.951838
PG05   5808.242502  25800.125653   1237.546125    -90.628290
PG06 -15568.396463   8643.831554  19793.133118    401.443014
PG07 -25890.345551  -5462.767272  -3998.610751    317.661448
PG08  -3829.633965 -16175.808412 -20673.594527    -77.881960
PG09 -19167.072789    235.457284  18331.740089   -314.855228
PG10  12714.926810  -9245.132998 -21211.078873   -506.369167
PG11  -2553.305242  15151.790815  21661.353810    -10.368638
PG12   9674.771663  22887.880048   9262.663391   -252.733800
PG13  -6820.142764  19043.292847 -17275.194893    356.264160
PG14 -14044.889431   7480.470035 -21247.726415   -111.144271
PG15   6178.531501  16225.842942 -20451.120943    -42.195351
PG16   1144.147145 -25492.488874   6175.989906   -517.545336
PG17 -22390.098489  12945.505251  -5729.888997    641.545030
PG18  25632.410885   5157.058984  -5054.619886    100.962424
PG19 -20176.572349  16836.942013   2578.197389    189.086146
PG20  -1335.612354  23080.132589  13279.039207    499.861280
PG21 -13754.062228 -15187.011260 -16649.185535    160.915001
PG22  17876.581637 -18761.770059   5794.014856    299.277774
PG23  15665.846012   2478.643013 -21334.992672    -34.628082
PG24  17774.854143  14692.651510 -13837.933001    186.047019
PG25  15578.710917  11560.098905  17972.360949    353.867704
PG26   6027.882457 -20596.287715  15361.071025    220.466027
PG27   8705.432017 -20781.170150 -13959.657152    220.882584
PG28  -9994.860780  17051.333648 -17346.689577    337.611186
PG29  18984.675712    975.248960  18532.994957   -537.286867
PG30 -22699.606873   2896.733090 -13602.798881   -534.826665
PG31  13837.087230 -10317.792901  20172.573582   -187.326885
PG32  20993.083304 -15581.424248  -3911.723558   -187.085400
PJ02 -20390.356343  24362.055928 -23120.624217     -2.227304
PJ03 -28963.577513  26753.048284  19874.524994     -0.288338
PR01  10872.581585 -22734.164622  -4002.317957     12.143761
PR02   1227.381173 -20717.248937  14828.874124    525.275612
PR03  -9062.942561  -6521.639786  22974.506429     60.883615
PR04 -13931.688979  11024.077902  18335.386053    151.974835
PR05 -11401.428605  22547.169358   3605.541391     96.894294
PR07   9331.234964   5856.259503 -22970.793559     38.456321
PR08  13950.989135 -11189.841023 -18120.866953    -66.408482
PR09  11616.238051  21075.317723  -8319.240668     67.947002
PR11  14390.759979   2170.219749  20958.930513     32.195824
PR12   1885.225532 -14120.834532  21187.358211     19.546533
PR13 -10735.462115 -21013.197947   9685.406276    -25.035409
PR14 -17896.912098 -15787.369884  -9019.452922     24.754908
PR15 -14006.063036  -1433.089925 -21246.505892     94.507161
PR17 -20927.975507  -3797.332553 -14044.412956    547.044542
PR18 -25136.321854   3930.542725   2151.459292     34.590479
PR19 -17400.846102   8877.608563  16390.054549   -197.759038
PR20   3730.898914   9986.212369  23171.962012    -75.336206
PR21  21881.699766   3149.216214  12748.317731   -320.644634
PR24  -4815.564813 -10219.370941 -22857.931959    105.695104
EOF
